{"type": "FeatureCollection", "bbox": [4.0, 43.5, 8.0, 46.0], "features": [{"type": "Feature", "properties": {"OBJECTID": 10211, "OBJECTID_1": 0, "f_code": null, "f_code_des": null, "acc": 0, "acc_descri": null, "exs": 0, "exs_descri": null, "tile_id": 0, "edg_id": 0, "Shape_Leng": 0.03834974633, "TIMEPERIOD": "ACHRL", "TITLE": "Planasia/Lerina", "pid": null, "creator": "ajo", "approx": null}, "geometry": {"type": "MultiLineString", "coordinates": [[[7.055340000000797, 43.50920000000042], [7.051439999999275, 43.51001999999971], [7.047339999999167, 43.50960999999916], [7.042009999999209, 43.51001999999971], [7.038109999999506, 43.508169999999154], [7.043439999999464, 43.50674000000072], [7.04693000000043, 43.5044799999996], [7.050010000000839, 43.50612], [7.055340000000797, 43.50756], [7.055749999999534, 43.50941000000057]]]}}, {"type": "Feature", "properties": {"OBJECTID": 8529, "OBJECTID_1": 5477, "f_code": "BA010", "f_code_des": "Coastline/Shoreline", "acc": 1, "acc_descri": "Accurate", "exs": 1, "exs_descri": "Definite", "tile_id": 24, "edg_id": 44, "Shape_Leng": 3.43048300118, "TIMEPERIOD": null, "TITLE": null, "pid": null, "creator": "ajo", "approx": null}, "geometry": {"type": "MultiLineString", "coordinates": [[[10.024779999999737, 44.04215], [10.00786, 44.04948999999942], [10.0, 44.05328], [9.99739000000045, 44.05289000000084], [9.98999, 44.04833999999937], [9.98359999999957, 44.05343999999968], [9.976580000000467, 44.05854999999974], [9.974669999999605, 44.06366], [9.976580000000467, 44.068129999999655], [9.977539999999863, 44.07418999999936], [9.97689999999966, 44.07898000000023], [9.972750000000815, 44.080260000000635], [9.969240000000354, 44.08057999999983], [9.974029999999402, 44.07546999999977], [9.973389999999199, 44.06876999999986], [9.97084, 44.06237999999939], [9.974350000000413, 44.0566400000007], [9.980729999999312, 44.05120999999963], [9.98583999999937, 44.04706000000078], [9.98711, 44.04483000000073], [9.98359999999957, 44.04068], [9.978820000000269, 44.03557], [9.975940000000264, 44.0358899999992], [9.971470000000409, 44.0378], [9.962540000000445, 44.03811999999925], [9.941469999999754, 44.054400000000896], [9.931259999999384, 44.057269999999335], [9.92391999999927, 44.0643], [9.914660000000367, 44.069400000000314], [9.908910000000105, 44.069400000000314], [9.908919999999853, 44.07272000000012], [9.9098699999995, 44.07802000000083], [9.907320000000254, 44.081529999999475], [9.90157, 44.08376999999928], [9.892320000000836, 44.081850000000486], [9.879870000000665, 44.08441], [9.877000000000407, 44.08727999999974], [9.8687000000009, 44.088550000000396], [9.864869999999428, 44.09494000000086], [9.859759999999369, 44.100360000000364], [9.857210000000123, 44.10324000000037], [9.855929999999717, 44.107389999999214], [9.848910000000615, 44.11025999999947], [9.84603000000061, 44.107389999999214], [9.842860000000655, 44.10942000000068], [9.83806, 44.111220000000685], [9.83302999999978, 44.10954999999922], [9.830190000000584, 44.108360000000175], [9.82625, 44.102279999999155], [9.82625, 44.0993899999994], [9.82593000000088, 44.086639999999534], [9.831029999999373, 44.07929999999942], [9.829760000000533, 44.07579000000078], [9.834539999999834, 44.07418999999936], [9.840930000000299, 44.07418999999936], [9.83582000000024, 44.06748999999945], [9.83900999999969, 44.06748999999945], [9.845079999999143, 44.069719999999506], [9.849229999999807, 44.06845000000067], [9.848270000000412, 44.06557000000066], [9.853699999999662, 44.06047000000035], [9.849609999999302, 44.05832999999984], [9.844970000000103, 44.0586000000003], [9.840319999999338, 44.057230000000345], [9.838669999999183, 44.05450000000019], [9.83403, 44.049300000000585], [9.830470000000787, 44.050390000000334], [9.826090000000477, 44.05586000000039], [9.817339999999604, 44.06106], [9.805860000000393, 44.06489], [9.79601, 44.0659799999994], [9.790479999999661, 44.07085], [9.783980000000156, 44.07144999999946], [9.781240000000253, 44.07474], [9.775499999999738, 44.07582999999977], [9.773310000000492, 44.08020000000033], [9.769210000000385, 44.08129999999983], [9.765380000000732, 44.08375999999953], [9.76154999999926, 44.08349000000089], [9.75799999999981, 44.09031999999934], [9.751710000000458, 44.0900500000007], [9.74569, 44.09224], [9.739670000000842, 44.09224], [9.736660000000484, 44.098260000000664], [9.729419999999664, 44.10508999999911], [9.725860000000466, 44.10783000000083], [9.72668, 44.111109999999826], [9.72313000000031, 44.11493999999948], [9.7162900000003, 44.11876999999913], [9.707259999999224, 44.11876999999913], [9.704530000000887, 44.12123000000065], [9.703439999999318, 44.1247800000001], [9.699880000000121, 44.12642000000051], [9.693320000000313, 44.1283399999993], [9.680739999999787, 44.135449999999764], [9.67609000000084, 44.13873000000058], [9.666240000000471, 44.14173999999912], [9.65447999999924, 44.14557000000059], [9.644089999999778, 44.14502], [9.639440000000832, 44.13600000000042], [9.633700000000317, 44.13463000000047], [9.62876999999935, 44.138999999999214], [9.621530000000348, 44.14442000000054], [9.617969999999332, 44.15015999999923], [9.611409999999523, 44.15453999999954], [9.60621, 44.15919000000031], [9.608120000000781, 44.16356000000087], [9.609490000000733, 44.16849], [9.605659999999261, 44.17066999999952], [9.59937, 44.17286000000058], [9.593080000000555, 44.17231999999967], [9.584329999999682, 44.175600000000486], [9.584600000000137, 44.17943000000014], [9.58324, 44.18270999999913], [9.578059999999823, 44.1832200000008], [9.573669999999765, 44.18051999999989], [9.566829999999754, 44.18325999999979], [9.567650000000867, 44.18543999999929], [9.568740000000616, 44.18844999999965], [9.566279999999097, 44.19364999999925], [9.562180000000808, 44.194470000000365], [9.55343, 44.20184999999947], [9.549600000000282, 44.20622999999978], [9.54577000000063, 44.207870000000185], [9.538389999999708, 44.20650000000023], [9.52745, 44.20759999999973], [9.512539999999717, 44.21661999999924], [9.502150000000256, 44.22346], [9.496950000000652, 44.22864999999911], [9.496680000000197, 44.236039999999775], [9.488750000000437, 44.239589999999225], [9.48027, 44.241509999999835], [9.47617, 44.23659000000043], [9.471519999999146, 44.23439999999937], [9.465770000000703, 44.23575999999957], [9.458119999999326, 44.23795000000064], [9.452100000000428, 44.24069000000054], [9.444439999999304, 44.238499999999476], [9.440339999999196, 44.24095999999918], [9.438700000000608, 44.24561], [9.435530000000654, 44.251029999999446], [9.432679999999891, 44.25409000000036], [9.429669999999533, 44.25546000000031], [9.42202, 44.25928000000022], [9.415450000000419, 44.25873999999931], [9.407250000000204, 44.2535399999997], [9.403689999999187, 44.252990000000864], [9.401229999999487, 44.25928000000022], [9.398769999999786, 44.264209999999366], [9.394940000000133, 44.268309999999474], [9.39221, 44.26804000000084], [9.39084, 44.26994999999988], [9.392750000000888, 44.27433000000019], [9.393850000000384, 44.27650999999969], [9.379759999999806, 44.28816999999981], [9.371030000000246, 44.29389000000083], [9.350769999999102, 44.30485000000044], [9.33915, 44.30939000000035], [9.332039999999324, 44.31129999999939], [9.325469999999768, 44.311579999999594], [9.318090000000666, 44.31623000000036], [9.308240000000296, 44.32142000000022], [9.297029999999722, 44.323340000000826], [9.286640000000261, 44.32771], [9.279529999999795, 44.33072], [9.271049999999377, 44.334279999999126], [9.25929, 44.336740000000646], [9.249719999999797, 44.34029], [9.24156000000039, 44.34444000000076], [9.237139999999272, 44.34795], [9.232830000000831, 44.3486699999994], [9.22628000000077, 44.34114000000045], [9.225749999999607, 44.34056000000055], [9.218189999999595, 44.3377], [9.215109999999186, 44.33396999999968], [9.215690000000905, 44.32597], [9.212970000000496, 44.32089000000087], [9.21371999999974, 44.3169999999991], [9.21064, 44.313529999999446], [9.212330000000293, 44.31011000000035], [9.21083, 44.3078000000005], [9.212110000000393, 44.30227999999988], [9.209109999999782, 44.30035999999927], [9.19981, 44.30473999999958], [9.191600000000108, 44.309110000000146], [9.186949999999342, 44.30829000000085], [9.177379999999175, 44.31048], [9.176009999999224, 44.31623000000036], [9.173549999999523, 44.31486000000041], [9.16726000000017, 44.31431], [9.16453, 44.317590000000564], [9.156600000000253, 44.31513000000086], [9.151669999999285, 44.31787000000077], [9.147839999999633, 44.32388], [9.1527700000006, 44.329900000000634], [9.15495, 44.335370000000694], [9.15386000000035, 44.34110999999939], [9.15495, 44.34740000000056], [9.151780000000144, 44.35244000000057], [9.140359999999419, 44.360969999999725], [9.133359999999811, 44.360420000000886], [9.12788, 44.36211999999978], [9.12104, 44.36512000000039], [9.112839999999778, 44.36813000000075], [9.105939999999464, 44.3707200000008], [9.100529999999708, 44.37250999999924], [9.09451000000081, 44.37250999999924], [9.08604000000014, 44.373059999999896], [9.081659999999829, 44.3768799999998], [9.058960000000297, 44.38011], [9.046000000000276, 44.38163999999961], [9.035439999999653, 44.38203000000067], [9.010420000000522, 44.38561], [9.0018, 44.386130000000776], [8.996059999999488, 44.38803999999982], [8.989770000000135, 44.39077999999972], [8.982930000000124, 44.39186999999947], [8.975889999999708, 44.390299999999115], [8.956309999999576, 44.39364000000023], [8.949829999999565, 44.39624999999978], [8.936719999999696, 44.39741999999933], [8.924810000000434, 44.40663999999924], [8.922899999999572, 44.41101999999955], [8.919620000000577, 44.41374999999971], [8.912780000000566, 44.41457000000082], [8.908949999999095, 44.41101999999955], [8.897469999999885, 44.40910000000076], [8.8709400000007, 44.41430000000037], [8.852999999999156, 44.41972], [8.813249999999243, 44.424950000000536], [8.803330000000642, 44.42545000000064], [8.788619999999355, 44.42550999999912], [8.763730000000578, 44.42879], [8.741029999999228, 44.427700000000186], [8.73146000000088, 44.42141000000083], [8.725169999999707, 44.417310000000725], [8.713410000000295, 44.41621], [8.690710000000763, 44.408009999999194], [8.685919999999896, 44.40226000000075], [8.685380000000805, 44.39652000000024], [8.676900000000387, 44.39242000000013], [8.665960000000268, 44.390230000000884], [8.657209999999395, 44.39186999999947], [8.647360000000845, 44.38859000000048], [8.640890000000581, 44.387370000000374], [8.635599999999613, 44.38092999999935], [8.630129999999554, 44.379290000000765], [8.6263, 44.373820000000705], [8.614820000000691, 44.3672600000009], [8.605310000000827, 44.365490000000136], [8.598410000000513, 44.362059999999474], [8.58813999999984, 44.35981], [8.573790000000372, 44.35851], [8.566960000000108, 44.356040000000576], [8.565500000000611, 44.34964000000036], [8.563399999999092, 44.3462], [8.548909999999523, 44.34401000000071], [8.54069999999956, 44.33581000000049], [8.52347, 44.330879999999524], [8.51445000000058, 44.32923999999912], [8.508159999999407, 44.328419999999824], [8.502140000000509, 44.32623000000058], [8.497489999999743, 44.32186], [8.494210000000749, 44.317479999999705], [8.487639999999374, 44.314469999999346], [8.486000000000786, 44.312009999999646], [8.491749999999229, 44.3125600000003], [8.49503, 44.31502], [8.498579999999492, 44.3158399999993], [8.496119999999792, 44.30983000000015], [8.485179999999673, 44.30271], [8.465759999999136, 44.297239999999874], [8.450720000000729, 44.28766999999971], [8.44525000000067, 44.280290000000605], [8.440329999999449, 44.27372], [8.441419999999198, 44.26908], [8.446620000000621, 44.264970000000176], [8.45428, 44.26279000000068], [8.456190000000788, 44.258959999999206], [8.445200000000114, 44.2460200000005], [8.44622999999956, 44.24252999999953], [8.442329999999856, 44.23761000000013], [8.435559999999896, 44.237199999999575], [8.416900000000169, 44.22509999999966], [8.416080000000875, 44.21668999999929], [8.41936, 44.21074000000044], [8.417719999999463, 44.20499000000018], [8.41750999999931, 44.200479999999516], [8.423870000000534, 44.19760999999926], [8.424489999999423, 44.19453000000067], [8.420389999999315, 44.19187000000056], [8.415259999999762, 44.18960999999945], [8.40828, 44.18551], [8.4070499999998, 44.18181999999979], [8.387979999999516, 44.181000000000495], [8.374030000000857, 44.17771], [8.368889999999737, 44.17499999999927], [8.34726000000046, 44.16950999999972], [8.338649999999689, 44.16602000000057], [8.337620000000243, 44.162130000000616], [8.32655, 44.1608899999992], [8.297829999999522, 44.15474], [8.290030000000115, 44.15022999999928], [8.277729999999792, 44.145510000000286], [8.271779999999126, 44.138890000000174], [8.27117, 44.13791999999921], [8.261389999999665, 44.12814000000071], [8.25144, 44.11818999999923], [8.234759999999369, 44.09567000000061], [8.22737000000052, 44.07680000000073], [8.226759999999558, 44.05546999999933], [8.227989999999409, 44.04767], [8.22696, 44.04438999999911], [8.220170000000508, 44.04063999999926], [8.20973000000049, 44.03515999999945], [8.19312, 44.02121000000079], [8.191479999999501, 44.01771999999983], [8.185320000000502, 44.01567000000068], [8.177890000000843, 44.01058000000012], [8.16932000000088, 44.001109999999244], [8.160910000000513, 43.98798], [8.160910000000513, 43.9715699999997], [8.172200000000885, 43.96069999999963], [8.174450000000434, 43.95619000000079], [8.170959999999468, 43.952289999999266], [8.1541500000003, 43.95126999999957], [8.145669999999882, 43.94974999999977], [8.13681, 43.94245000000046], [8.135169999999562, 43.93404], [8.126969999999346, 43.926040000000285], [8.11015000000043, 43.92235000000073], [8.092940000000453, 43.91453], [8.083889999999883, 43.908400000000256], [8.07733, 43.90223999999944], [8.080200000000332, 43.89854999999989], [8.07651000000078, 43.893630000000485], [8.068100000000413, 43.88890999999967], [8.04205, 43.886239999999816], [8.027669999999489, 43.88492000000042], [8.02506, 43.88047], [8.024610000000393, 43.876399999999194], [8.019720000000234, 43.87347000000045], [7.9982600000003, 43.86818999999923], [7.990869999999632, 43.865529999999126], [7.978359999999157, 43.86285999999927], [7.968310000000201, 43.85916999999972], [7.966050000000905, 43.85302000000047], [7.9519, 43.847680000000764], [7.940619999999399, 43.845429999999396], [7.927639999999883, 43.84447], [7.917579999999361, 43.8435300000001], [7.911079999999856, 43.838449999999284], [7.90308, 43.83640000000014], [7.896520000000237, 43.83763], [7.874159999999392, 43.83640000000014], [7.859700000000885, 43.83107000000018], [7.852929999999105, 43.83107000000018], [7.84288000000015, 43.82697], [7.842269999999189, 43.823270000000775], [7.835699999999633, 43.81753000000026], [7.830780000000232, 43.815889999999854], [7.828110000000379, 43.81692], [7.814580000000205, 43.82184000000052], [7.799810000000434, 43.82121999999981], [7.79068, 43.81978999999956], [7.784120000000257, 43.81978999999956], [7.77694, 43.81363000000056], [7.764419999999518, 43.80993999999919], [7.750679999999193, 43.804400000000896], [7.740219999999681, 43.79620000000068], [7.73632, 43.79476000000068], [7.727709999999206, 43.79743000000053], [7.716220000000249, 43.800709999999526], [7.708220000000438, 43.80030000000079], [7.697560000000522, 43.79743000000053], [7.69304000000011, 43.79066000000057], [7.683399999999892, 43.78512000000046], [7.675610000000233, 43.779169999999795], [7.665759999999864, 43.7773300000008], [7.654070000000502, 43.7806099999998], [7.62464, 43.78492], [7.60966, 43.78676000000087], [7.602489999999307, 43.78943000000072], [7.595100000000457, 43.79025], [7.58915, 43.79250999999931], [7.575409999999465, 43.79250999999931], [7.56495, 43.79128], [7.560229999999137, 43.788399999999456], [7.557360000000699, 43.781230000000505], [7.552639999999883, 43.782250000000204], [7.548950000000332, 43.78102000000035], [7.545260000000781, 43.78286999999909], [7.53377, 43.78389000000061], [7.524639999999636, 43.78512000000046]]]}}, {"type": "Feature", "properties": {"OBJECTID": 8530, "OBJECTID_1": 5478, "f_code": "BA010", "f_code_des": "Coastline/Shoreline", "acc": 1, "acc_descri": "Accurate", "exs": 1, "exs_descri": "Definite", "tile_id": 24, "edg_id": 47, "Shape_Leng": 0.0966511725973, "TIMEPERIOD": null, "TITLE": null, "pid": null, "creator": "ajo", "approx": null}, "geometry": {"type": "MultiLineString", "coordinates": [[[7.453879999999117, 43.75928000000022], [7.460650000000896, 43.76009999999951], [7.470079999999143, 43.75497], [7.474599999999555, 43.751070000000254], [7.481770000000324, 43.74942999999985], [7.48711, 43.750050000000556], [7.48711, 43.75292000000081], [7.484239999999772, 43.756610000000364], [7.486080000000584, 43.763380000000325], [7.493669999999838, 43.76912000000084], [7.503520000000208, 43.773839999999836], [7.508649999999761, 43.77958000000035], [7.514999999999418, 43.78451], [7.524639999999636, 43.78512000000046]]]}}, {"type": "Feature", "properties": {"OBJECTID": 8531, "OBJECTID_1": 5479, "f_code": "BA010", "f_code_des": "Coastline/Shoreline", "acc": 1, "acc_descri": "Accurate", "exs": 1, "exs_descri": "Definite", "tile_id": 24, "edg_id": 50, "Shape_Leng": 0.0697004444256, "TIMEPERIOD": null, "TITLE": null, "pid": null, "creator": "ajo", "approx": null}, "geometry": {"type": "MultiLineString", "coordinates": [[[7.407110000000102, 43.719279999999344], [7.413469999999506, 43.725430000000415], [7.419620000000577, 43.729740000000675], [7.42660000000069, 43.732819999999265], [7.42229000000043, 43.73466], [7.429469999999128, 43.73877], [7.438700000000608, 43.74964], [7.445879999999306, 43.751689999999144], [7.453879999999117, 43.75928000000022]]]}}, {"type": "Feature", "properties": {"OBJECTID": 8532, "OBJECTID_1": 5480, "f_code": "BA010", "f_code_des": "Coastline/Shoreline", "acc": 1, "acc_descri": "Accurate", "exs": 1, "exs_descri": "Definite", "tile_id": 24, "edg_id": 54, "Shape_Leng": 0.381977388371, "TIMEPERIOD": null, "TITLE": null, "pid": null, "creator": "ajo", "approx": null}, "geometry": {"type": "MultiLineString", "coordinates": [[[7.407110000000102, 43.719279999999344], [7.399629999999888, 43.719489999999496], [7.391219999999521, 43.72010000000046], [7.386699999999109, 43.72277000000031], [7.381170000000566, 43.72113], [7.374400000000605, 43.717640000000756], [7.367420000000493, 43.720509999999194], [7.359220000000278, 43.72256000000016], [7.35347, 43.71969], [7.347729999999501, 43.71436], [7.340550000000803, 43.713739999999234], [7.335629999999583, 43.71046000000024], [7.334810000000289, 43.705949999999575], [7.330710000000181, 43.70327999999972], [7.333370000000286, 43.69692000000032], [7.334810000000289, 43.689329999999245], [7.341990000000806, 43.68749000000025], [7.34814, 43.68769000000066], [7.349990000000616, 43.685639999999694], [7.34137, 43.6838000000007], [7.335419999999431, 43.682559999999285], [7.335010000000693, 43.67559000000074], [7.327010000000882, 43.67436000000089], [7.324350000000777, 43.67763999999988], [7.323119999999108, 43.68543999999929], [7.319840000000113, 43.68995], [7.322500000000218, 43.692409999999654], [7.325989999999365, 43.69569000000047], [7.324140000000625, 43.699790000000576], [7.32107, 43.70123000000058], [7.319020000000819, 43.70615], [7.314089999999851, 43.70615], [7.310199999999895, 43.700409999999465], [7.307119999999486, 43.69836000000032], [7.308349999999336, 43.68851], [7.30486000000019, 43.68522999999914], [7.298909999999523, 43.686869999999544], [7.294200000000274, 43.685849999999846], [7.292970000000423, 43.69096999999965], [7.28784000000087, 43.692409999999654], [7.28907000000072, 43.69446000000062], [7.286200000000463, 43.69528], [7.284149999999499, 43.69282000000021], [7.278200000000652, 43.69405], [7.26394000000073, 43.69467000000077], [7.25389, 43.69323000000077], [7.23769, 43.68605000000025], [7.223939999999857, 43.67128000000048], [7.214299999999639, 43.66225999999915], [7.196459999999206, 43.657750000000306], [7.17841000000044, 43.6563100000003], [7.169589999999516, 43.6571299999996], [7.162720000000263, 43.6563100000003]]]}}, {"type": "Feature", "properties": {"OBJECTID": 8533, "OBJECTID_1": 5481, "f_code": "BA010", "f_code_des": "Coastline/Shoreline", "acc": 1, "acc_descri": "Accurate", "exs": 1, "exs_descri": "Definite", "tile_id": 24, "edg_id": 57, "Shape_Leng": 0.0759315704033, "TIMEPERIOD": "ACHRL", "TITLE": "Lero", "pid": null, "creator": "ajo", "approx": null}, "geometry": {"type": "MultiLineString", "coordinates": [[[7.059440000000905, 43.514939999999115], [7.049600000000282, 43.51637999999912], [7.03975, 43.51637999999912], [7.034830000000511, 43.517400000000634], [7.034019999999146, 43.52196999999978], [7.039349999999104, 43.52239], [7.041740000000573, 43.524310000000696], [7.067880000000514, 43.518809999999576], [7.067800000000716, 43.51739000000089], [7.067740000000413, 43.516279999999824], [7.059030000000348, 43.514939999999115]]]}}, {"type": "Feature", "properties": {"OBJECTID": 8542, "OBJECTID_1": 5490, "f_code": "BA010", "f_code_des": "Coastline/Shoreline", "acc": 1, "acc_descri": "Accurate", "exs": 1, "exs_descri": "Definite", "tile_id": 24, "edg_id": 77, "Shape_Leng": 4.30317870569, "TIMEPERIOD": null, "TITLE": null, "pid": null, "creator": "ajo", "approx": null}, "geometry": {"type": "MultiLineString", "coordinates": [[[7.162720000000263, 43.6563100000003], [7.150620000000345, 43.649129999999786], [7.14487, 43.64215999999942], [7.137689999999566, 43.63271999999961], [7.130719999999201, 43.62062], [7.126819999999498, 43.61077], [7.126000000000204, 43.59375], [7.129689999999755, 43.5912900000003], [7.128870000000461, 43.589029999999184], [7.126000000000204, 43.5888300000006], [7.122919999999795, 43.589029999999184], [7.124159999999392, 43.58575000000019], [7.12395, 43.583080000000336], [7.126619999999093, 43.58144], [7.126819999999498, 43.57529000000068], [7.1299, 43.570159999999305], [7.134, 43.57036999999946], [7.13933, 43.56934], [7.139540000000125, 43.56544000000031], [7.138720000000831, 43.5613400000002], [7.136259999999311, 43.55847], [7.137080000000424, 43.55518999999913], [7.141180000000531, 43.555599999999686], [7.143850000000384, 43.55314], [7.136669999999867, 43.54432000000088], [7.131330000000162, 43.54432000000088], [7.12867, 43.54534000000058], [7.12457, 43.54718999999932], [7.12087000000065, 43.544519999999466], [7.117389999999432, 43.54924000000028], [7.119849999999133, 43.55211000000054], [7.120670000000246, 43.555599999999686], [7.119849999999133, 43.560929999999644], [7.113489999999729, 43.5660599999992], [7.108360000000175, 43.56934], [7.097700000000259, 43.57078], [7.086209999999483, 43.57036999999946], [7.078310000000783, 43.56748999999945], [7.070110000000568, 43.5638], [7.06149, 43.55457000000024], [7.05370000000039, 43.54595999999947], [7.046309999999721, 43.543910000000324], [7.04119, 43.54268000000047], [7.038930000000619, 43.53734000000077], [7.035649999999805, 43.53878000000077], [7.034009999999398, 43.54083], [7.03298, 43.54615999999987], [7.02658, 43.54975000000013], [7.021699999999328, 43.55026], [7.02088, 43.55232000000069], [7.017799999999625, 43.550059999999576], [7.013909999999669, 43.54637], [7.006729999999152, 43.548210000000836], [6.998320000000604, 43.548829999999725], [6.987549999999828, 43.548580000000584], [6.977090000000317, 43.54735000000073], [6.966829999999391, 43.54385999999977], [6.9537, 43.53628000000026], [6.946519999999509, 43.526019999999335], [6.941399999999703, 43.52151000000049], [6.937910000000556, 43.51514999999927], [6.938319999999294, 43.50941000000057], [6.942419999999402, 43.50674000000072], [6.950220000000627, 43.505919999999605], [6.95514, 43.504689999999755], [6.954729999999472, 43.4981200000002], [6.94981, 43.49443000000065], [6.946319999999105, 43.490529999999126], [6.948169999999664, 43.485609999999724], [6.945289999999659, 43.48417999999947], [6.934629999999743, 43.48519999999917], [6.930940000000192, 43.483360000000175], [6.932370000000446, 43.47842999999921], [6.928060000000187, 43.47372], [6.92396, 43.47146000000066], [6.924170000000231, 43.461199999999735], [6.921500000000378, 43.45792000000074], [6.922940000000381, 43.45484000000033], [6.920060000000376, 43.44808000000012], [6.912679999999455, 43.447260000000824], [6.90386000000035, 43.44397000000026], [6.896389999999883, 43.43944999999985], [6.896070000000691, 43.43638], [6.894840000000841, 43.43023], [6.889499999999316, 43.42818000000079], [6.881709999999657, 43.42797000000064], [6.87576000000081, 43.42613], [6.870629999999437, 43.42591999999968], [6.869609999999739, 43.42921000000024], [6.86776, 43.4320800000005], [6.864890000000742, 43.4347400000006], [6.860580000000482, 43.4337200000009], [6.857910000000629, 43.4322800000009], [6.858120000000781, 43.429], [6.857910000000629, 43.425310000000536], [6.86038, 43.41690000000017], [6.855859999999666, 43.41198000000077], [6.850940000000264, 43.41074], [6.847250000000713, 43.41546000000017], [6.83986, 43.416080000000875], [6.826530000000275, 43.41710000000057], [6.812889999999243, 43.414849999999205], [6.801820000000589, 43.413000000000466], [6.797710000000734, 43.413619999999355], [6.794019999999364, 43.4109499999995], [6.788070000000516, 43.40828], [6.78335, 43.40951], [6.781919999999445, 43.412389999999505], [6.776789999999892, 43.41546000000017], [6.772070000000895, 43.41750999999931], [6.766540000000532, 43.42264000000068], [6.762430000000677, 43.42613], [6.744790000000648, 43.4345400000002], [6.741099999999278, 43.43781999999919], [6.738639999999577, 43.439870000000155], [6.73351, 43.43761000000086], [6.73146000000088, 43.43514999999934], [6.735559999999168, 43.431870000000345], [6.742130000000543, 43.431259999999384], [6.745409999999538, 43.42858999999953], [6.744590000000244, 43.42654000000039], [6.738639999999577, 43.42367000000013], [6.734329999999318, 43.42079999999987], [6.73164, 43.41599999999926], [6.735559999999168, 43.41587000000072], [6.735559999999168, 43.41136], [6.730020000000877, 43.40521000000081], [6.72592000000077, 43.40274999999929], [6.720180000000255, 43.402539999999135], [6.72408, 43.399460000000545], [6.727559999999357, 43.39350999999988], [6.731970000000729, 43.39126000000033], [6.731149999999616, 43.38839], [6.72295, 43.379979999999705], [6.72172, 43.37649000000056], [6.715560000000551, 43.37279999999919], [6.713920000000144, 43.36622999999963], [6.71803, 43.36254], [6.719049999999697, 43.35721000000012], [6.716189999999187, 43.35507999999936], [6.7143300000007, 43.35269999999946], [6.71515, 43.34704000000056], [6.712079999999332, 43.344569999999294], [6.702639999999519, 43.34396000000015], [6.696690000000672, 43.3412900000003], [6.691979999999603, 43.3412900000003], [6.680689999999231, 43.3412900000003], [6.671050000000832, 43.333699999999226], [6.669620000000577, 43.330009999999675], [6.667980000000171, 43.32590999999957], [6.665720000000874, 43.32406000000083], [6.665929999999207, 43.32119000000057], [6.667160000000877, 43.31832000000031], [6.670439999999871, 43.3150399999995], [6.671050000000832, 43.31339999999909], [6.66921, 43.3125799999998], [6.661819999999352, 43.31380999999965], [6.654850000000806, 43.311139999999796], [6.643980000000738, 43.30478000000039], [6.640900000000329, 43.304990000000544], [6.63865000000078, 43.306829999999536], [6.633309999999256, 43.3064200000008], [6.628179999999702, 43.30335000000014], [6.62634000000071, 43.296580000000176], [6.620179999999891, 43.29493999999977], [6.605830000000424, 43.28795999999966], [6.58716, 43.2803700000004], [6.584489999999278, 43.27462999999989], [6.591060000000653, 43.26540000000023], [6.594139999999243, 43.26376], [6.621209999999337, 43.26519], [6.624490000000151, 43.26744999999937], [6.631059999999707, 43.268270000000484], [6.637000000000626, 43.27421999999933], [6.645409999999174, 43.274419999999736], [6.650340000000142, 43.27114000000074], [6.652799999999843, 43.27114000000074], [6.656699999999546, 43.268480000000636], [6.660589999999502, 43.26765999999952], [6.662850000000617, 43.26498999999967], [6.66675000000032, 43.267040000000634], [6.669410000000425, 43.27052999999978], [6.668589999999313, 43.275040000000445], [6.670439999999871, 43.2779100000007], [6.674750000000131, 43.27852999999959], [6.679459999999381, 43.279959999999846], [6.684590000000753, 43.27401], [6.68808, 43.273810000000594], [6.691979999999603, 43.27052999999978], [6.697099999999409, 43.26581000000078], [6.696490000000267, 43.261710000000676], [6.692590000000564, 43.259249999999156], [6.690950000000157, 43.25309000000016], [6.68541, 43.25084000000061], [6.678439999999682, 43.24591], [6.673930000000837, 43.2453000000005], [6.667569999999614, 43.2455000000009], [6.663920000000871, 43.241219999999885], [6.663259999999354, 43.23072999999931], [6.663459999999759, 43.21966000000066], [6.66367, 43.21308999999928], [6.669410000000425, 43.21042999999918], [6.668999999999869, 43.207759999999325], [6.679050000000643, 43.20202000000063], [6.680689999999231, 43.19956], [6.676390000000538, 43.19565999999941], [6.670850000000428, 43.19565999999941], [6.657310000000507, 43.19442999999956], [6.648699999999735, 43.187659999999596], [6.643570000000182, 43.1854000000003], [6.642540000000736, 43.182119999999486], [6.640079999999216, 43.18130000000019], [6.641110000000481, 43.17884000000049], [6.641310000000885, 43.175349999999526], [6.642949999999473, 43.17228000000068], [6.645409999999174, 43.169410000000425], [6.645000000000437, 43.16715], [6.641719999999623, 43.17084000000068], [6.638440000000628, 43.1731], [6.632900000000518, 43.172889999999825], [6.626130000000558, 43.16653000000042], [6.623470000000452, 43.16489], [6.622439999999187, 43.15874000000076], [6.61895, 43.15893999999935], [6.616900000000896, 43.16284000000087], [6.614649999999529, 43.16447999999946], [6.610749999999825, 43.166119999999864], [6.607879999999568, 43.16878999999972], [6.606439999999566, 43.17247999999927], [6.603979999999865, 43.17330000000038], [6.60275, 43.17987], [6.598029999999198, 43.18397], [6.592490000000907, 43.186429999999746], [6.577520000000732, 43.18663000000015], [6.560289999999441, 43.189510000000155], [6.548800000000483, 43.187050000000454], [6.539570000000822, 43.181510000000344], [6.534550000000309, 43.17548], [6.535159999999451, 43.17199000000073], [6.538860000000568, 43.17055000000073], [6.534750000000713, 43.16583999999966], [6.533729999999196, 43.163580000000366], [6.528599999999642, 43.16502000000037], [6.522039999999834, 43.165429999999105], [6.512399999999616, 43.15885999999955], [6.508289999999761, 43.156199999999444], [6.502350000000661, 43.15517], [6.495370000000548, 43.15106999999989], [6.489219999999477, 43.15331999999944], [6.484909999999218, 43.15208999999959], [6.475070000000414, 43.15598999999929], [6.469730000000709, 43.154959999999846], [6.462960000000749, 43.1576299999997], [6.456190000000788, 43.15538000000015], [6.4484, 43.15331999999944], [6.445530000000872, 43.14552999999978], [6.438759999999093, 43.1443], [6.437320000000909, 43.1484], [6.432199999999284, 43.151270000000295], [6.424499999999171, 43.15106999999989], [6.420400000000882, 43.1484], [6.409530000000814, 43.1484], [6.402760000000853, 43.14962999999989], [6.397020000000339, 43.144500000000335], [6.392920000000231, 43.145730000000185], [6.384099999999307, 43.143480000000636], [6.377940000000308, 43.13876], [6.3683, 43.13711999999941], [6.36276, 43.12945000000036], [6.360099999999875, 43.12247000000025], [6.360099999999875, 43.11468000000059], [6.360710000000836, 43.111189999999624], [6.359070000000429, 43.10852999999952], [6.360919999999169, 43.10524000000078], [6.366869999999835, 43.10381000000052], [6.367480000000796, 43.09765999999945], [6.366050000000541, 43.09375999999975], [6.369329999999536, 43.091089999999895], [6.365229999999428, 43.08658], [6.359689999999318, 43.088840000000346], [6.350870000000214, 43.088630000000194], [6.341839999999138, 43.08986], [6.331589999999778, 43.0913], [6.322969999999259, 43.09396000000015], [6.325230000000374, 43.0974499999993], [6.323379999999815, 43.09991000000082], [6.317639999999301, 43.1034], [6.315790000000561, 43.107089999999516], [6.308820000000196, 43.1075], [6.299590000000535, 43.10668000000078], [6.29302, 43.10894], [6.290559999999459, 43.10852999999952], [6.28585000000021, 43.10914000000048], [6.28687, 43.11201000000074], [6.28708, 43.11489000000074], [6.28082, 43.11489000000074], [6.274670000000697, 43.1202200000007], [6.259079999999813, 43.119189999999435], [6.249850000000151, 43.115499999999884], [6.234870000000228, 43.11201000000074], [6.223799999999756, 43.11427], [6.204929999999877, 43.11468000000059], [6.19672, 43.112419999999474], [6.182469999999739, 43.10697000000073], [6.17447, 43.101629999999204], [6.165440000000672, 43.09466000000066], [6.158880000000863, 43.08564], [6.155389999999898, 43.0801], [6.153340000000753, 43.07333], [6.153140000000349, 43.06718], [6.1506700000009, 43.06245999999919], [6.150470000000496, 43.057119999999486], [6.150499999999738, 43.04219000000012], [6.152729999999792, 43.037640000000465], [6.154780000000756, 43.035180000000764], [6.162780000000566, 43.03435999999965], [6.169550000000527, 43.03538], [6.170980000000782, 43.03354000000036], [6.167289999999412, 43.032100000000355], [6.16237, 43.03046], [6.159079999999449, 43.02800000000025], [6.147600000000239, 43.02758999999969], [6.13796, 43.03046], [6.135169999999562, 43.035110000000714], [6.12873000000036, 43.035180000000764], [6.12421, 43.030870000000505], [6.117860000000292, 43.0341499999995], [6.112929999999324, 43.03435999999965], [6.107599999999366, 43.030870000000505], [6.103699999999662, 43.02860999999939], [6.09755000000041, 43.027179999999134], [6.093650000000707, 43.030870000000505], [6.09078000000045, 43.03620000000046], [6.092220000000452, 43.04051000000072], [6.097959999999148, 43.040720000000874], [6.103499999999258, 43.041950000000725], [6.110469999999623, 43.04112999999961], [6.118060000000696, 43.03928000000087], [6.122779999999693, 43.04133], [6.129549999999654, 43.04378999999972], [6.129139999999097, 43.05507000000034], [6.127699999999095, 43.07107], [6.121960000000399, 43.07858], [6.111290000000736, 43.08390999999938], [6.094880000000558, 43.08390999999938], [6.087910000000193, 43.08698999999979], [6.08401000000049, 43.08576], [6.077040000000125, 43.08698999999979], [6.075189999999566, 43.08432], [6.068010000000868, 43.08390999999938], [6.043910000000324, 43.07836999999927], [6.022779999999329, 43.07836999999927], [6.017449999999371, 43.080840000000535], [6.016429999999673, 43.08453], [6.020319999999629, 43.08740000000034], [6.024020000000746, 43.09089], [6.022580000000744, 43.0949899999996], [6.016750000000684, 43.09647000000041], [6.009659999999712, 43.10258000000067], [6.001860000000306, 43.1034], [5.997149999999237, 43.10504000000037], [5.99120000000039, 43.10298999999941], [5.984220000000278, 43.105859999999666], [5.973969999999099, 43.10729999999967], [5.96904, 43.10381000000052], [5.960629999999583, 43.10688999999911], [5.946130000000267, 43.106840000000375], [5.937719999999899, 43.10601999999926], [5.932590000000346, 43.102129999999306], [5.926229999999123, 43.10274000000027], [5.924800000000687, 43.104380000000674], [5.927050000000236, 43.10724999999911], [5.92972, 43.111360000000786], [5.930749999999534, 43.11586999999963], [5.927260000000388, 43.1212], [5.922749999999724, 43.12243], [5.915979999999763, 43.11996999999974], [5.911050000000614, 43.12428], [5.907569999999396, 43.12613000000056], [5.905720000000656, 43.120380000000296], [5.906339999999545, 43.11628000000019], [5.901620000000548, 43.11505000000034], [5.889929999999367, 43.117920000000595], [5.887259999999515, 43.11566], [5.883159999999407, 43.11074], [5.883470000000671, 43.10589000000073], [5.89075000000048, 43.10478999999941], [5.897520000000441, 43.10335999999916], [5.906129999999393, 43.10355999999956], [5.91085000000021, 43.10131], [5.908799999999246, 43.09801999999945], [5.911669999999503, 43.09638000000086], [5.908390000000509, 43.09268999999949], [5.901410000000396, 43.092280000000756], [5.898540000000139, 43.088589999999385], [5.896489999999176, 43.08408000000054], [5.899980000000141, 43.07977000000028], [5.904080000000249, 43.080589999999575], [5.906950000000506, 43.07833000000028], [5.908390000000509, 43.079970000000685], [5.915360000000874, 43.084899999999834], [5.919669999999314, 43.087359999999535], [5.922749999999724, 43.07956000000013], [5.925209999999424, 43.078129999999874], [5.928690000000643, 43.08367], [5.935460000000603, 43.08448999999928], [5.945100000000821, 43.08264000000054], [5.951670000000377, 43.07771999999932], [5.951049999999668, 43.07114999999976], [5.945309999999154, 43.067259999999806], [5.942030000000159, 43.067259999999806], [5.934230000000753, 43.07156000000032], [5.92787, 43.07054000000062], [5.919869999999719, 43.06931000000077], [5.912490000000616, 43.06540999999925], [5.908180000000357, 43.068489999999656], [5.905720000000656, 43.0728], [5.899980000000141, 43.07114999999976], [5.897109999999884, 43.077509999999165], [5.888699999999517, 43.078129999999874], [5.884389999999257, 43.07300000000032], [5.876599999999598, 43.06931000000077], [5.868899999999485, 43.0633600000001], [5.86193, 43.05557000000044], [5.863160000000789, 43.05207999999948], [5.858239999999569, 43.04716], [5.847980000000462, 43.049409999999625], [5.842440000000352, 43.04653999999937], [5.83547, 43.04859000000033], [5.830749999999171, 43.048179999999775], [5.824189999999362, 43.051869999999326], [5.818240000000515, 43.0570000000007], [5.81728, 43.060890000000654], [5.810550000000148, 43.064549999999144], [5.801320000000487, 43.067220000000816], [5.79414, 43.0698799999991], [5.795570000000225, 43.07481], [5.801320000000487, 43.07604], [5.80522000000019, 43.07992999999988], [5.804799999999886, 43.086090000000695], [5.807679999999891, 43.08669999999984], [5.808499999999185, 43.0926500000005], [5.81178, 43.09428999999909], [5.810960000000705, 43.09778], [5.805420000000595, 43.0998299999992], [5.808290000000852, 43.10229000000072], [5.812799999999697, 43.10455], [5.81178, 43.10906000000068], [5.808090000000448, 43.11521], [5.801520000000892, 43.11706000000049], [5.794340000000375, 43.11213999999927], [5.789829999999711, 43.11316000000079], [5.789629999999306, 43.11583000000064], [5.779780000000756, 43.116439999999784], [5.768500000000131, 43.11602999999923], [5.767680000000837, 43.11829000000034], [5.775470000000496, 43.12033999999949], [5.776910000000498, 43.123209999999744], [5.771779999999126, 43.12383000000045], [5.773010000000795, 43.1258799999996], [5.779169999999795, 43.12916000000041], [5.779169999999795, 43.13264999999956], [5.77629, 43.136749999999665], [5.77158000000054, 43.13880000000063], [5.7644, 43.137370000000374], [5.756810000000769, 43.135519999999815], [5.746859999999288, 43.13462000000072], [5.726140000000669, 43.13503], [5.722859999999855, 43.13748999999916], [5.719030000000203, 43.14514000000054], [5.710549999999785, 43.14466999999968], [5.707479999999123, 43.14568999999938], [5.703380000000834, 43.143229999999676], [5.695579999999609, 43.14281999999912], [5.694139999999607, 43.144459999999526], [5.693320000000313, 43.15020999999979], [5.690660000000207, 43.15286999999989], [5.685740000000806, 43.15328000000045], [5.682450000000244, 43.15472000000045], [5.684090000000651, 43.15718000000015], [5.682660000000396, 43.16128000000026], [5.692300000000614, 43.16538000000037], [5.69456, 43.168869999999515], [5.693939999999202, 43.17400000000089], [5.689839999999094, 43.17727999999988], [5.684499999999389, 43.17953999999918], [5.677120000000286, 43.17850999999973], [5.673629999999321, 43.17830999999933], [5.666660000000775, 43.18077000000085], [5.658450000000812, 43.1820000000007], [5.65303, 43.18725000000086], [5.645630000000892, 43.18733000000066], [5.637230000000272, 43.188969999999244], [5.625739999999496, 43.18733000000066], [5.616920000000391, 43.1834400000007], [5.610350000000835, 43.17503000000033], [5.608299999999872, 43.167639999999665], [5.607889999999315, 43.16149000000041], [5.604199999999764, 43.161079999999856], [5.589840000000549, 43.16580000000067], [5.572410000000673, 43.17215000000033], [5.566670000000158, 43.17769000000044], [5.560719999999492, 43.18426], [5.549639999999272, 43.19287000000077], [5.547590000000127, 43.20024999999987], [5.548609999999826, 43.20783999999912], [5.544920000000275, 43.207430000000386], [5.543690000000424, 43.20968999999968], [5.541440000000875, 43.20887000000039], [5.538150000000314, 43.209899999999834], [5.537130000000616, 43.21337999999923], [5.533030000000508, 43.21318000000065], [5.524209999999584, 43.20641000000069], [5.519280000000435, 43.20354000000043], [5.519280000000435, 43.205589999999575], [5.514569999999367, 43.20271999999932], [5.513129999999364, 43.19902], [5.510459999999512, 43.19779000000017], [5.509229999999661, 43.19964000000073], [5.505129999999554, 43.19983999999931], [5.503489999999147, 43.19800000000032], [5.497750000000451, 43.19717999999921], [5.494049999999334, 43.20168999999987], [5.486880000000383, 43.20333000000028], [5.471359999999549, 43.20579], [5.469359999999142, 43.20809999999983], [5.464589999999589, 43.20887000000039], [5.454569999999876, 43.209899999999834], [5.447599999999511, 43.20968999999968], [5.448420000000624, 43.20723], [5.450880000000325, 43.20641000000069], [5.450059999999212, 43.20354000000043], [5.447389999999359, 43.204970000000685], [5.444310000000769, 43.20456000000013], [5.437749999999141, 43.20537999999942], [5.430780000000595, 43.20887000000039], [5.424619999999777, 43.20968999999968], [5.422370000000228, 43.20948], [5.42544000000089, 43.20723], [5.423800000000483, 43.20456000000013], [5.419490000000224, 43.20660999999927], [5.411700000000565, 43.20845999999983], [5.404930000000604, 43.212970000000496], [5.390369999999166, 43.21133], [5.377239999999802, 43.20968999999968], [5.367809999999736, 43.20660999999927], [5.35714, 43.208010000000286], [5.349550000000818, 43.21107999999913], [5.34627, 43.214780000000246], [5.343399999999747, 43.21437], [5.34176, 43.2151900000008], [5.344419999999445, 43.2176500000005], [5.34545000000071, 43.22523999999976], [5.349749999999403, 43.23159999999916], [5.354470000000219, 43.23323999999957], [5.360420000000886, 43.23816000000079], [5.362059999999474, 43.24247], [5.36678000000029, 43.242879999999786], [5.37068, 43.24493000000075], [5.37334, 43.2500600000003], [5.37457, 43.258060000000114], [5.371090000000549, 43.26749000000018], [5.362269999999626, 43.27036000000044], [5.349749999999403, 43.28021000000081], [5.34422000000086, 43.281849999999395], [5.347289999999703, 43.2832899999994], [5.350370000000112, 43.28717999999935], [5.353240000000369, 43.291080000000875], [5.353649999999107, 43.29621000000043], [5.364110000000437, 43.29271999999946], [5.370059999999285, 43.29313], [5.373960000000807, 43.29559], [5.36391, 43.29579999999987], [5.362059999999474, 43.30236], [5.36247, 43.3072800000009], [5.359189999999217, 43.32111000000077], [5.348319999999148, 43.33484999999928], [5.342780000000857, 43.334240000000136], [5.343189999999595, 43.33690000000024], [5.34545000000071, 43.33998000000065], [5.339089999999487, 43.3449], [5.332319999999527, 43.3498299999992], [5.325349999999162, 43.356589999999414], [5.319600000000719, 43.35762000000068], [5.31489, 43.36008000000038], [5.310579999999391, 43.361109999999826], [5.302369999999428, 43.361109999999826], [5.294990000000325, 43.359669999999824], [5.288629999999102, 43.35639000000083], [5.282680000000255, 43.35311], [5.278990000000704, 43.35044000000016], [5.267299999999523, 43.34305999999924], [5.261759999999413, 43.3408], [5.260220000000118, 43.337719999999536], [5.251399999999194, 43.33547], [5.242790000000241, 43.33177000000069], [5.229859999999462, 43.32890000000043], [5.219810000000507, 43.32807999999932], [5.210380000000441, 43.32930999999917], [5.201559999999517, 43.33013000000028], [5.198479999999108, 43.33177000000069], [5.192530000000261, 43.3287], [5.185970000000452, 43.33074999999917], [5.179200000000492, 43.33136000000013], [5.176740000000791, 43.33383], [5.173249999999825, 43.33238999999958], [5.168949999999313, 43.32788000000073], [5.157049999999799, 43.32705999999962], [5.154179999999542, 43.3287], [5.151719999999841, 43.32684999999947], [5.147000000000844, 43.32541999999921], [5.142069999999876, 43.32829], [5.136539999999513, 43.327470000000176], [5.13357, 43.32897000000048], [5.129769999999553, 43.32767000000058], [5.126280000000406, 43.32911000000058], [5.122380000000703, 43.32788000000073], [5.116640000000189, 43.32911000000058], [5.107309999999416, 43.32930999999917], [5.09951, 43.32911000000058], [5.096229999999196, 43.328489999999874], [5.092539999999644, 43.33238999999958], [5.087820000000647, 43.33259999999973], [5.086999999999534, 43.33034000000043], [5.082899999999427, 43.32788000000073], [5.081260000000839, 43.32807999999932], [5.079209999999875, 43.33034000000043], [5.077569999999469, 43.32767000000058], [5.076339999999618, 43.328489999999874], [5.07244, 43.32788000000073], [5.070589999999356, 43.33074999999917], [5.065870000000359, 43.33115999999973], [5.061359999999695, 43.33013000000028], [5.059520000000703, 43.32788000000073], [5.05562, 43.32582999999977], [5.049670000000333, 43.32561999999962], [5.050699999999779, 43.329719999999725], [5.051110000000335, 43.33259999999973], [5.049259999999776, 43.33342000000084], [5.04577000000063, 43.32890000000043], [5.041670000000522, 43.33074999999917], [5.037360000000263, 43.33013000000028], [5.031619999999748, 43.332800000000134], [5.027079999999842, 43.33843999999954], [5.018389999999272, 43.3436700000002], [5.018799999999828, 43.34675000000061], [5.022699999999531, 43.34469999999965], [5.023929999999382, 43.34613], [5.021059999999125, 43.3498299999992], [5.025359999999637, 43.35392999999931], [5.021259999999529, 43.355359999999564], [5.016949999999269, 43.35802999999942], [5.016750000000684, 43.36008000000038], [5.014080000000831, 43.36172000000079], [5.012849999999162, 43.36685000000034], [5.014489999999569, 43.3697200000006], [5.010599999999613, 43.36993000000075], [5.009780000000319, 43.37279999999919], [5.007310000000871, 43.37299999999959], [5.003010000000359, 43.3736200000003], [5.000439999999799, 43.37793000000056], [5.00413, 43.379360000000815], [4.998799999999392, 43.37976999999955], [4.992749999999432, 43.38818], [4.987010000000737, 43.39314999999988], [4.99131, 43.39499000000069]]]}}, {"type": "Feature", "properties": {"OBJECTID": 8550, "OBJECTID_1": 5498, "f_code": "BA010", "f_code_des": "Coastline/Shoreline", "acc": 1, "acc_descri": "Accurate", "exs": 1, "exs_descri": "Definite", "tile_id": 24, "edg_id": 98, "Shape_Leng": 2.61869525489, "TIMEPERIOD": null, "TITLE": null, "pid": null, "creator": "ajo", "approx": null}, "geometry": {"type": "MultiLineString", "coordinates": [[[3.164810000000216, 42.44081], [3.169529999999213, 42.444219999999405], [3.169330000000627, 42.44811], [3.161920000000464, 42.45289000000048], [3.163060000000769, 42.45593999999983], [3.157629999999699, 42.46110000000044], [3.159240000000864, 42.46430999999939], [3.157859999999346, 42.46889999999985], [3.156279999999242, 42.472499999999854], [3.152130000000398, 42.479450000000725], [3.14611, 42.48627999999917], [3.138639999999214, 42.488970000000336], [3.125, 42.48639], [3.13011, 42.49322000000029], [3.12896, 42.49964], [3.125060000000303, 42.50285000000076], [3.122999999999593, 42.5051399999993], [3.128039999999601, 42.508130000000165], [3.134470000000874, 42.51271000000088], [3.138139999999112, 42.51684000000023], [3.124139999999898, 42.52096999999958], [3.10923, 42.526019999999335], [3.099140000000261, 42.52510000000075], [3.08687, 42.526019999999335], [3.08756, 42.529459999999744], [3.080910000000586, 42.53335999999945], [3.071270000000368, 42.537029999999504], [3.058429999999134, 42.53725999999915], [3.049310000000332, 42.54794000000038], [3.045120000000679, 42.56088000000091], [3.041219999999157, 42.587719999999536], [3.039849999999205, 42.60309000000052], [3.039160000000265, 42.61479], [3.036169999999402, 42.63520000000062], [3.035490000000209, 42.66342000000077], [3.035260000000562, 42.6820000000007], [3.037089999999807, 42.69691000000057], [3.038930000000619, 42.7184699999998], [3.0348, 42.718699999999444], [3.029979999999341, 42.71916000000056], [3.02815, 42.724669999999605], [3.031820000000153, 42.726730000000316], [3.035490000000209, 42.72581], [3.038469999999506, 42.725580000000264], [3.035949999999502, 42.738429999999425], [3.037780000000566, 42.74736999999914], [3.039619999999559, 42.79508999999962], [3.039849999999205, 42.82032000000072], [3.04099, 42.829719999999725], [3.042139999999563, 42.840729999999894], [3.044200000000274, 42.84991000000082], [3.051540000000386, 42.88912999999957], [3.053610000000845, 42.89826], [3.058199999999488, 42.9111099999991], [3.060030000000552, 42.92120000000068], [3.053939999999784, 42.92691999999988], [3.040069999999105, 42.93174999999974], [3.013010000000577, 42.94735000000037], [3.007960000000821, 42.94665999999961], [2.997869999999239, 42.94436999999925], [2.989149999999427, 42.942989999999554], [2.984099999999671, 42.94758], [2.981579999999667, 42.95469000000048], [2.98823000000084, 42.96318000000065], [2.992819999999483, 42.96661999999924], [3.0, 42.97732999999971], [3.002249999999549, 42.977999999999156], [3.00425, 42.97861000000012], [3.00934000000052, 42.977170000000115], [3.012549999999464, 42.97327000000041], [3.012779999999111, 42.96846], [3.011860000000524, 42.96479], [3.014639999999417, 42.95932999999968], [3.017809999999372, 42.954750000000786], [3.020829999999478, 42.95032999999967], [3.029290000000401, 42.94436999999925], [3.0348, 42.94598000000042], [3.036860000000161, 42.951709999999366], [3.038010000000213, 42.96913999999924], [3.04461000000083, 42.985609999999724], [3.050170000000435, 42.99919000000045], [3.05919, 43.02852999999959], [3.065249999999651, 43.042530000000625], [3.065370000000257, 43.05553999999938], [3.052789999999732, 43.07134000000042], [3.03994000000057, 43.08712999999989], [3.035389999999097, 43.09998000000087], [3.0386, 43.10668000000078], [3.046630000000732, 43.107749999999214], [3.063770000000659, 43.09704000000056], [3.067520000000513, 43.08980999999949], [3.069929999999658, 43.08151], [3.079560000000129, 43.07883000000038], [3.106139999999868, 43.10313999999926], [3.112080000000788, 43.10792000000038], [3.121059999999488, 43.11695999999938], [3.132840000000215, 43.127660000000105], [3.140330000000176, 43.13677], [3.148230000000694, 43.14265999999952], [3.156259999999747, 43.149349999999686], [3.165370000000621, 43.154969999999594], [3.172860000000583, 43.16193000000021], [3.1859800000002, 43.17370999999912], [3.19829000000027, 43.1838800000005], [3.204180000000633, 43.18790000000081], [3.230149999999412, 43.20984999999928], [3.248620000000301, 43.22163], [3.27245000000039, 43.23394999999982], [3.30163, 43.24893999999949], [3.326530000000275, 43.26152], [3.338309999999183, 43.26499999999942], [3.338180000000648, 43.27097999999933], [3.339, 43.27364999999918], [3.343310000000201, 43.27138999999988], [3.346180000000459, 43.27282000000014], [3.349819999999454, 43.27143000000069], [3.359189999999217, 43.275980000000345], [3.364809999999125, 43.2770500000006], [3.366149999999834, 43.28347000000031], [3.372310000000653, 43.28105999999934], [3.407779999999548, 43.289090000000215], [3.425250000000233, 43.289520000000266], [3.434890000000451, 43.2874699999993], [3.445530000000872, 43.2821299999996], [3.4723, 43.276239999999234], [3.484940000000279, 43.27392999999938], [3.499200000000201, 43.27496000000065], [3.51109, 43.27392999999938], [3.515810000000783, 43.274139999999534], [3.527710000000297, 43.28787999999986], [3.536529999999402, 43.299160000000484], [3.5474, 43.3088000000007], [3.556430000000546, 43.31721], [3.563399999999092, 43.32480000000032], [3.57427, 43.33238999999958], [3.58227000000079, 43.340179999999236], [3.597859999999855, 43.35106000000087], [3.625449999999546, 43.37156999999934], [3.652930000000197, 43.38716000000022], [3.669550000000527, 43.393190000000686], [3.676729999999225, 43.39072999999917], [3.691899999999805, 43.39257], [3.69888, 43.39934], [3.700930000000881, 43.404669999999896], [3.69601, 43.41266999999971], [3.711390000000392, 43.42272000000048], [3.714879999999539, 43.41779999999926], [3.719699999999648, 43.417059999999765], [3.730569999999716, 43.41870000000017], [3.75641, 43.42649999999958], [3.772619999999733, 43.43203999999969], [3.77426000000014, 43.435520000000906], [3.76749000000018, 43.435520000000906], [3.757439999999406, 43.43326999999954], [3.747590000000855, 43.430599999999686], [3.73939000000064, 43.42814], [3.732, 43.42772999999943], [3.733650000000125, 43.43018999999913], [3.743490000000747, 43.4363400000002], [3.749850000000151, 43.4400399999995], [3.757439999999406, 43.4413999999997], [3.761539999999513, 43.44434], [3.76318, 43.44742000000042], [3.766869999999471, 43.44967999999972], [3.77426000000014, 43.45336999999927], [3.783489999999802, 43.45644], [3.795179999999164, 43.456239999999525], [3.808919999999489, 43.4638300000006], [3.814050000000861, 43.465469999999186], [3.814050000000861, 43.46321], [3.809129999999641, 43.45973000000049], [3.801540000000386, 43.45419000000038], [3.799080000000686, 43.44906000000083], [3.789230000000316, 43.44373000000087], [3.78534000000036, 43.43942000000061], [3.79005, 43.437369999999646], [3.803389999999126, 43.44578], [3.82615000000078, 43.46587999999974], [3.84882, 43.49070000000029], [3.865229999999428, 43.50074999999924], [3.87558, 43.505810000000565], [3.91712, 43.52002999999968], [3.962659999999232, 43.5374699999993], [3.974350000000413, 43.54198], [3.993839999999182, 43.54833999999937], [4.015989999999874, 43.55300999999963], [4.050859999999375, 43.55753], [4.087980000000243, 43.560600000000704], [4.099879999999757, 43.56654999999955], [4.099469999999201, 43.57085999999981], [4.095369999999093, 43.57331999999951], [4.09516000000076, 43.57577999999921], [4.102140000000873, 43.574140000000625], [4.108290000000125, 43.57517], [4.112390000000232, 43.57701000000088], [4.1208000000006, 43.572910000000775], [4.130240000000413, 43.567370000000665], [4.147259999999733, 43.55587999999989], [4.159569999999803, 43.54830000000038], [4.16921, 43.54399000000012], [4.173520000000281, 43.5351699999992], [4.176390000000538, 43.52162999999928], [4.183160000000498, 43.50432], [4.193820000000414, 43.4940600000009], [4.208179999999629, 43.48176000000058], [4.220690000000104, 43.471089999999094], [4.240180000000692, 43.46041999999943]]]}}]}